; Hydrogel volumetric extrusion demo
; E units are cubic millimetres, not filament length.
; Nominal deposited cross-section: 0.4 mm x 0.4 mm.
; Patch footprint: 25 mm x 15 mm, 1 mm line spacing.
G21
G90
M82
G92 E0
;LAYER_COUNT:1
;LAYER:0
G0 X0 Y0 Z0.4 F3000
G1 X25 Y0 E4 F600
G0 X25 Y1 F3000
G1 X0 Y1 E8 F600
G0 X0 Y2 F3000
G1 X25 Y2 E12 F600
G0 X25 Y3 F3000
G1 X0 Y3 E16 F600
G0 X0 Y4 F3000
G1 X25 Y4 E20 F600
G0 X25 Y5 F3000
G1 X0 Y5 E24 F600
G0 X0 Y6 F3000
G1 X25 Y6 E28 F600
G0 X25 Y7 F3000
G1 X0 Y7 E32 F600
G0 X0 Y8 F3000
G1 X25 Y8 E36 F600
G0 X25 Y9 F3000
G1 X0 Y9 E40 F600
G0 X0 Y10 F3000
G1 X25 Y10 E44 F600
G0 X25 Y11 F3000
G1 X0 Y11 E48 F600
G0 X0 Y12 F3000
G1 X25 Y12 E52 F600
G0 X25 Y13 F3000
G1 X0 Y13 E56 F600
G0 X0 Y14 F3000
G1 X25 Y14 E60 F600
G0 X25 Y15 F3000
G1 X0 Y15 E64 F600
G92 E0
